OBJECT_NAME,OBJECT_ID,EPOCH,MEAN_MOTION,ECCENTRICITY,INCLINATION,RA_OF_ASC_NODE,ARG_OF_PERICENTER,MEAN_ANOMALY,EPHEMERIS_TYPE,CLASSIFICATION_TYPE,NORAD_CAT_ID,ELEMENT_SET_NO,REV_AT_EPOCH,BSTAR,MEAN_MOTION_DOT,MEAN_MOTION_DDOT
GUOWANG TEST OBJECT A,2026-120A,2026-06-07T11:06:12.288672,15.38803685,.00095994,54.9967,71.5399,294.3963,65.6063,0,U,69320,999,119,.24095813E-3,.9002E-4,0
GUOWANG TEST OBJECT B,2026-120B,2026-06-11T00:46:53.506272,15.39043592,.0009365,54.9985,55.4407,313.0317,46.9926,0,U,69321,999,174,.260805E-3,.9856E-4,0
GUOWANG TEST OBJECT C,2026-120C,2026-06-07T21:56:00.773376,15.39284097,.00098504,54.9968,69.4792,309.3319,50.6835,0,U,69322,999,126,.41735581E-3,.16153E-3,0
GUOWANG TEST OBJECT D,2026-120D,2026-06-11T05:22:50.409120,15.38912611,.0010487,54.9983,54.5451,328.4140,31.6258,0,U,69323,999,177,.10675E-3,.3781E-4,0
QIANFAN-163,2026-121A,2026-06-07T22:57:09.243936,13.60351284,.00192,89.0167,301.4498,214.2671,145.7248,0,U,69325,999,90,.25988E-4,.32E-6,0
QIANFAN-164,2026-121B,2026-06-11T09:53:52.001952,13.60355109,.0019383,89.0157,301.0998,205.3125,154.7084,0,U,69326,999,137,.13228E-3,.112E-5,0
SZ-22 MODULE,2025-272C,2026-06-10T23:11:31.096896,15.59968779,.00070706,41.4811,359.9208,34.2505,325.8789,0,U,69328,999,235,.23213204E-3,.19011E-3,0
STARLINK-37733,2026-122A,2026-06-11T16:00:01.998720,15.84297378,.0001555,97.2837,191.7844,79.1983,336.1170,0,U,69329,999,246,-.12576E-1,-.2446562E-1,0
STARLINK-37772,2026-122B,2026-06-11T16:00:01.998720,15.87128506,.0001623,97.2836,191.7939,80.7321,355.3798,0,U,69330,999,241,-.11348E-1,-.2521897E-1,0
STARLINK-37768,2026-122C,2026-06-11T16:00:01.998720,15.87811792,.0001814,97.2836,191.7959,67.6014,13.8301,0,U,69331,999,241,-.92636E-2,-.2132003E-1,0
STARLINK-37833,2026-122D,2026-06-11T16:00:01.998720,15.87423056,.0001677,97.2838,191.7978,78.2257,8.6921,0,U,69332,999,241,-.11052E-1,-.2496599E-1,0
STARLINK-37818,2026-122E,2026-06-11T16:00:01.998720,15.85217999,.0001497,97.2837,191.7964,80.8557,2.5206,0,U,69333,999,246,-.10577E-1,-.2140638E-1,0
STARLINK-37868,2026-122F,2026-06-11T16:00:01.998720,15.88323840,.0001311,97.2843,191.8008,77.5907,15.6761,0,U,69334,999,246,-.49483E-2,-.1186059E-1,0
STARLINK-37877,2026-122G,2026-06-11T16:00:01.998720,15.88313985,.000134,97.2843,191.8011,79.0780,15.0216,0,U,69335,999,246,-.495E-2,-.1185931E-1,0
STARLINK-37791,2026-122H,2026-06-11T16:00:01.998720,15.88376195,.0001298,97.2844,191.8030,71.0524,25.9439,0,U,69336,999,246,-.28223E-2,-.715842E-2,0
STARLINK-37765,2026-122J,2026-06-11T16:00:01.998720,15.88814253,.0001156,97.2846,191.8065,74.9094,30.8257,0,U,69337,999,251,-.27779E-2,-.719793E-2,0
STARLINK-37788,2026-122K,2026-06-11T16:00:01.998720,15.88363592,.0001151,97.2850,191.8099,76.1305,37.0698,0,U,69338,999,246,-.27184E-2,-.690912E-2,0
STARLINK-37743,2026-122L,2026-06-11T16:00:01.998720,15.88573203,.0001674,97.2850,191.8105,85.0909,30.0908,0,U,69339,999,246,-.10594E-1,-.2529217E-1,0
STARLINK-37780,2026-122M,2026-06-11T16:00:01.998720,15.89046575,.0001677,97.2850,191.8118,86.1456,31.6044,0,U,69340,999,251,-.10171E-1,-.2429948E-1,0
STARLINK-37781,2026-122N,2026-06-11T16:00:01.998720,15.87210700,.0001745,97.2849,191.8101,80.9087,34.6430,0,U,69341,999,246,-.10956E-1,-.2394412E-1,0
STARLINK-37782,2026-122P,2026-06-11T16:00:01.998720,15.89957127,.0001366,97.2853,191.8162,84.0259,43.9351,0,U,69342,999,246,-.45036E-2,-.1329667E-1,.50017E-3
STARLINK-37776,2026-122Q,2026-06-11T16:00:01.998720,15.90113530,.0001357,97.2854,191.8173,82.5030,49.0026,0,U,69343,999,246,-.44801E-2,-.1333122E-1,.50334E-3
STARLINK-37786,2026-122R,2026-06-11T16:00:01.998720,15.90569559,.0001342,97.2860,191.8214,89.8843,50.5963,0,U,69344,999,246,-.43403E-2,-.1321652E-1,.49757E-3
STARLINK-37785,2026-122S,2026-06-11T16:00:01.998720,15.90556104,.000132,97.2858,191.8214,85.5128,55.7833,0,U,69345,999,246,-.43281E-2,-.1317093E-1,.49434E-3
STARLINK-37773,2026-122T,2026-06-11T16:00:01.998720,15.91042113,.0001324,97.2861,191.8237,84.5868,61.4019,0,U,69346,999,251,-.28165E-2,-.881171E-2,.23554E-3
STARLINK-37744,2026-122U,2026-06-11T16:00:01.998720,15.91241412,.0001308,97.2863,191.8256,85.3952,65.2565,0,U,69347,999,246,-.57118E-2,-.1793537E-1,.88219E-3
STARLINK-37775,2026-122V,2026-06-11T16:00:01.998720,15.91496096,.0001655,97.2867,191.8267,103.1257,49.0207,0,U,69348,999,246,-.71278E-2,-.2261516E-1,.1369E-2
STARLINK-37777,2026-122W,2026-06-11T16:00:01.998720,15.91964302,.0001808,97.2868,191.8289,96.8199,60.7712,0,U,69349,999,246,-.87012E-2,-.2824405E-1,.21268E-2
STARLINK-37779,2026-122X,2026-06-11T16:00:01.998720,15.91167869,.0001859,97.2871,191.8325,94.6101,72.0611,0,U,69350,999,246,-.89397E-2,-.2785864E-1,.20497E-2
