GUOWANG TEST OBJECT A   
1 69320U 26120A   26158.46264223  .00009002  00000+0  24096-3 0  9996
2 69320  54.9967  71.5399 0009599 294.3963  65.6063 15.38803685  1198
GUOWANG TEST OBJECT B   
1 69321U 26120B   26162.03256373  .00009856  00000+0  26081-3 0  9995
2 69321  54.9985  55.4407 0009365 313.0317  46.9926 15.39043592  1748
GUOWANG TEST OBJECT C   
1 69322U 26120C   26158.91389784  .00016153  00000+0  41736-3 0  9993
2 69322  54.9968  69.4792 0009850 309.3319  50.6835 15.39284097  1266
GUOWANG TEST OBJECT D   
1 69323U 26120D   26162.22419455  .00003781  00000+0  10675-3 0  9993
2 69323  54.9983  54.5451 0010487 328.4140  31.6258 15.38912611  1776
QIANFAN-163             
1 69325U 26121A   26158.95635699  .00000032  00000+0  25988-4 0  9991
2 69325  89.0167 301.4498 0019200 214.2671 145.7248 13.60351284   905
QIANFAN-164             
1 69326U 26121B   26162.41240743  .00000112  00000+0  13228-3 0  9992
2 69326  89.0157 301.0998 0019383 205.3125 154.7084 13.60355109  1373
SZ-22 MODULE            
1 69328U 25272C   26161.96633214  .00019011  00000+0  23213-3 0  9991
2 69328  41.4811 359.9208 0007070  34.2505 325.8789 15.59968779  2356
STARLINK-37733          
1 69329U 26122A   26162.66668980 -.02446562  00000+0 -12576-1 0  9990
2 69329  97.2837 191.7844 0001555  79.1983 336.1170 15.84297378  2461
STARLINK-37772          
1 69330U 26122B   26162.66668980 -.02521897  00000+0 -11348-1 0  9993
2 69330  97.2836 191.7939 0001623  80.7321 355.3798 15.87128506  2410
STARLINK-37768          
1 69331U 26122C   26162.66668980 -.02132003  00000+0 -92636-2 0  9991
2 69331  97.2836 191.7959 0001814  67.6014  13.8301 15.87811792  2410
STARLINK-37833          
1 69332U 26122D   26162.66668980 -.02496599  00000+0 -11052-1 0  9997
2 69332  97.2838 191.7978 0001677  78.2257   8.6921 15.87423056  2410
STARLINK-37818          
1 69333U 26122E   26162.66668980 -.02140638  00000+0 -10577-1 0  9999
2 69333  97.2837 191.7964 0001497  80.8557   2.5206 15.85217999  2466
STARLINK-37868          
1 69334U 26122F   26162.66668980 -.01186059  00000+0 -49483-2 0  9995
2 69334  97.2843 191.8008 0001311  77.5907  15.6761 15.88323840  2468
STARLINK-37877          
1 69335U 26122G   26162.66668980 -.01185931  00000+0 -49500-2 0  9994
2 69335  97.2843 191.8011 0001340  79.0780  15.0216 15.88313985  2469
STARLINK-37791          
1 69336U 26122H   26162.66668980 -.00715842  00000+0 -28223-2 0  9993
2 69336  97.2844 191.8030 0001298  71.0524  25.9439 15.88376195  2461
STARLINK-37765          
1 69337U 26122J   26162.66668980 -.00719793  00000+0 -27779-2 0  9998
2 69337  97.2846 191.8065 0001156  74.9094  30.8257 15.88814253  2510
STARLINK-37788          
1 69338U 26122K   26162.66668980 -.00690912  00000+0 -27184-2 0  9990
2 69338  97.2850 191.8099 0001151  76.1305  37.0698 15.88363592  2464
STARLINK-37743          
1 69339U 26122L   26162.66668980 -.02529217  00000+0 -10594-1 0  9998
2 69339  97.2850 191.8105 0001674  85.0909  30.0908 15.88573203  2461
STARLINK-37780          
1 69340U 26122M   26162.66668980 -.02429948  00000+0 -10171-1 0  9991
2 69340  97.2850 191.8118 0001677  86.1456  31.6044 15.89046575  2511
STARLINK-37781          
1 69341U 26122N   26162.66668980 -.02394412  00000+0 -10956-1 0  9990
2 69341  97.2849 191.8101 0001745  80.9087  34.6430 15.87210700  2467
STARLINK-37782          
1 69342U 26122P   26162.66668980 -.01329667  50017-3 -45036-2 0  9995
2 69342  97.2853 191.8162 0001366  84.0259  43.9351 15.89957127  2463
STARLINK-37776          
1 69343U 26122Q   26162.66668980 -.01333122  50334-3 -44801-2 0  9998
2 69343  97.2854 191.8173 0001357  82.5030  49.0026 15.90113530  2467
STARLINK-37786          
1 69344U 26122R   26162.66668980 -.01321652  49757-3 -43403-2 0  9998
2 69344  97.2860 191.8214 0001342  89.8843  50.5963 15.90569559  2460
STARLINK-37785          
1 69345U 26122S   26162.66668980 -.01317093  49434-3 -43281-2 0  9999
2 69345  97.2858 191.8214 0001320  85.5128  55.7833 15.90556104  2468
STARLINK-37773          
1 69346U 26122T   26162.66668980 -.00881171  23554-3 -28165-2 0  9991
2 69346  97.2861 191.8237 0001324  84.5868  61.4019 15.91042113  2519
STARLINK-37744          
1 69347U 26122U   26162.66668980 -.01793537  88219-3 -57118-2 0  9990
2 69347  97.2863 191.8256 0001308  85.3952  65.2565 15.91241412  2463
STARLINK-37775          
1 69348U 26122V   26162.66668980 -.02261516  13690-2 -71278-2 0  9992
2 69348  97.2867 191.8267 0001655 103.1257  49.0207 15.91496096  2465
STARLINK-37777          
1 69349U 26122W   26162.66668980 -.02824405  21268-2 -87012-2 0  9998
2 69349  97.2868 191.8289 0001808  96.8199  60.7712 15.91964302  2465
STARLINK-37779          
1 69350U 26122X   26162.66668980 -.02785864  20497-2 -89397-2 0  9996
2 69350  97.2871 191.8325 0001859  94.6101  72.0611 15.91167869  2464
